STARLINK-30400          
1 57937U 23148C   26068.17015527  .00000231  00000+0  19912-4 0  9990
2 57937  53.1615  26.6044 0001096  73.1298 286.9823 15.30192178138346
TRANSPORTER-12 OBJECT AZ
1 62656U 25009AZ  26068.71026235  .00016057  00000+0  54903-3 0  9991
2 62656  97.3981 151.9913 0000987  45.3581 314.7740 15.30349724 63792
